BEIDOU-3S IGSO-1S       
1 40549U 15019A   26183.80025122 -.00000190  00000+0  00000+0 0  9997
2 40549  49.1798 295.2769 0076860 219.1125 144.2493  1.00680073 41232
NAVSTAR 74 (USA 262)    
1 40730U 15033A   26192.65233900  .00000013  00000+0  00000+0 0  9996
2 40730  53.9638 266.0769 0115288  30.2822 330.4526  2.00554867 80488
BEIDOU-3S M2S           
1 40748U 15037A   26191.41220186 -.00000067  00000+0  00000+0 0  9994
2 40748  54.8489 301.2473 0009273 257.2247 102.6907  1.86232238 74554
BEIDOU-3S M1S           
1 40749U 15037B   26192.69053808 -.00000066  00000+0  00000+0 0  9990
2 40749  54.8440 301.1898 0002834  63.3740 296.6751  1.86254753 74582
GSAT0206 (GALILEO 10)   
1 40890U 15045B   26191.33403541  .00000090  00000+0  00000+0 0  9995
2 40890  54.9400 220.9648 0002065 329.8405  30.2271  1.70473539 67434
BEIDOU-3S IGSO-2S       
1 40938U 15053A   26193.65278034 -.00000088  00000+0  00000+0 0  9999
2 40938  49.1821 258.4784 0066335 193.3301 167.2948  1.00253181 39619
NAVSTAR 75 (USA 265)    
1 41019U 15062A   26193.20591995 -.00000052  00000+0  00000+0 0  9996
2 41019  56.9764  29.8480 0112732 230.8964 128.1470  2.00566875 78336
GSAT-15                 
1 41028U 15065A   26193.50466663  .00000000  00000+0  00000+0 0  9997
2 41028   0.0244  49.3532 0003549  43.5169 112.7196  1.00268956 39053
GSAT0209 (GALILEO 12)   
1 41174U 15079A   26189.15594789 -.00000008  00000+0  00000+0 0  9990
2 41174  55.8390 100.6867 0004997 350.6288   9.3765  1.70473596 65135
GSAT0208 (GALILEO 11)   
1 41175U 15079B   26192.89588994 -.00000030  00000+0  00000+0 0  9992
2 41175  55.8397 100.5809 0004970  26.8071 333.2285  1.70473473 65614
IRNSS-1E                
1 41241U 16003A   26191.58253116 -.00000316  00000+0  00000+0 0  9991
2 41241  33.2836  59.4106 0019285 178.7449  11.7354  1.00267797 38314
NAVSTAR 76 (USA 266)    
1 41328U 16007A   26193.29738238 -.00000036  00000+0  00000+0 0  9993
2 41328  55.5393  88.4639 0096604 247.6175 111.3935  2.00575521 76345
COSMOS 2514 [GLONASS-M] 
1 41330U 16008A   26192.21743841 -.00000062  00000+0  00000+0 0  9993
2 41330  65.0058 312.1821 0012190 200.7153 159.2416  2.13102486 81134
BEIDOU-2 IGSO-6         
1 41434U 16021A   26177.11016981 -.00000145  00000+0  00000+0 0  9995
2 41434  60.2385  37.9495 0057558 231.0163 137.2672  1.00258926 37578
IRNSS-1G                
1 41469U 16027A   26193.51735610 -.00000339  00000+0  00000+0 0  9993
2 41469   5.2563  96.8886 0005967   9.9583 139.4871  1.00272473 37439
GSAT0211 (GALILEO 14)   
1 41549U 16030A   26191.84633793  .00000090  00000+0  00000+0 0  9992
2 41549  55.0905 221.0437 0003314 318.6557  41.3997  1.70473689 63078
GSAT0210 (GALILEO 13)   
1 41550U 16030B   26192.69017031  .00000088  00000+0  00000+0 0  9996
2 41550  55.0894 221.0186 0004667 245.3179 114.7139  1.70473889 63082
BEIDOU-2 G7             
1 41586U 16037A   26193.65616035 -.00000355  00000+0  00000+0 0  9996
2 41586   1.7795  69.4808 0006017 359.1787 208.6232  1.00274892  7142
EUTELSAT 117 WEST B     
1 41589U 16038B   26193.39142009 -.00000010  00000+0  00000+0 0  9994
2 41589   0.0123 120.2937 0000259 354.1008 199.8112  1.00270256 36919
GSAT0207 (GALILEO 15)   
1 41859U 16069A   26192.96868882 -.00000030  00000+0  00000+0 0  9996
2 41859  55.5126 100.4004 0004522 339.9754  20.0172  1.70473524 59824
GSAT0212 (GALILEO 16)   
1 41860U 16069B   26192.23550129 -.00000028  00000+0  00000+0 0  9997
2 41860  55.5101 100.4158 0004388   9.8985 350.1187  1.70473636 60063
GSAT0213 (GALILEO 17)   
1 41861U 16069C   26191.42949498 -.00000024  00000+0  00000+0 0  9995
2 41861  55.5116 100.4460 0004394 317.3165  42.6580  1.70474095 59912
GSAT0214 (GALILEO 18)   
1 41862U 16069D   26192.16233916 -.00000028  00000+0  00000+0 0  9993
2 41862  55.5107 100.4185 0003821 326.4011  33.5832  1.70473737 60050
SES-15                  
1 42709U 17026A   26193.51086678  .00000061  00000+0  00000+0 0  9995
2 42709   0.0263 328.9093 0000232 135.0399 241.1957  1.00267415  7682
QZS-2 (MICHIBIKI-2)     
1 42738U 17028A   26193.46322432 -.00000098  00000+0  00000+0 0  9995
2 42738  39.3903 242.7811 0757741 269.5677  87.1524  1.00277448  7884
QZS-3 (MICHIBIKI-3)     
1 42917U 17048A   26193.51683610 -.00000347  00000+0  00000+0 0  9997
2 42917   0.0698 216.8908 0002488 268.9767 117.6273  1.00273393 32515
COSMOS 2522 [GLONASS-M] 
1 42939U 17055A   26191.11660740  .00000122  00000+0  00000+0 0  9992
2 42939  64.0805 191.1038 0010910 240.8947 119.0275  2.13101919 68466
QZS-4 (MICHIBIKI-4)     
1 42965U 17062A   26192.89013762 -.00000326  00000+0  00000+0 0  9998
2 42965  40.0939 343.1714 0747476 268.4974 137.4815  1.00290892 32051
BEIDOU-3 M1             
1 43001U 17069A   26192.29607669 -.00000044  00000+0  00000+0 0  9993
2 43001  56.7127  62.2910 0009391 328.4947  31.5150  1.86230964 59050
BEIDOU-3 M2             
1 43002U 17069B   26191.16097920 -.00000046  00000+0  00000+0 0  9994
2 43002  56.7107  62.3639 0008254 357.9796   2.0799  1.86230592 59020
GSAT0215 (GALILEO 19)   
1 43055U 17079A   26192.06539411  .00000090  00000+0  00000+0 0  9997
2 43055  55.0682 220.8492 0003697 267.9007  92.1373  1.70474334 53396
